STARLINK-32758          
1 62744U 25014K   26068.26805976  .00018288  00000+0  67212-3 0  9997
2 62744  42.9949 160.1651 0000796 262.5243  97.5518 15.27595828 63150
KUIPER-00208            
1 67775U 26030M   26068.67231509  .00043852  00000+0  13883-2 0  9994
2 67775  51.8846 219.6993 0015525  57.3146 302.9333 15.32208734  5080
